{
  "norad_id": 32711,
  "name": "NAVSTAR 62 (USA 201)",
  "history": [
    {
      "epoch": "2026-03-27T08:56:45.660480",
      "apogee_km": 20734.831343275204,
      "perigee_km": 19628.467503928223,
      "latitude_deg": 40.27473524369402,
      "longitude_deg": -89.11593279987574,
      "semi_major_axis_km": 26559.786423601712,
      "eccentricity": 0.0208278,
      "inclination_deg": 54.4839,
      "raan_deg": 153.1942,
      "arg_perigee_deg": 246.5928,
      "mean_anomaly_deg": 111.2592,
      "mean_motion_rev_day": 2.00569963
    }
  ]
}